
STRATOSAT-TK 1 (RS52S)  
1 57167U 23091B   25038.90751175  .00032723  00000+0  11732-2 0  9996
2 57167  97.5752  99.3660 0011305  24.3476 335.8295 15.28595014 89352
UMKA 1 (RS40S)          
1 57172U 23091G   25038.88988420  .00008860  00000+0  50419-3 0  9995
2 57172  97.5789  94.9771 0015999  38.6424 321.5949 15.12975685 89061
CUBESX-HSE 3 (RS42S)    
1 57178U 23091N   25038.91892658  .00013029  00000+0  66250-3 0  9995
2 57178  97.5818  96.4401 0015277  29.9249 330.2854 15.16880490 89148
MONITOR-3 (RS58S)       
1 57180U 23091Q   25038.89568156  .00012379  00000+0  65138-3 0  9999
2 57180  97.5815  95.9622 0015882  31.2425 328.9747 15.15678143 89112
MONITOR-4 (RS57S)       
1 57182U 23091S   25038.89536474  .00012281  00000+0  64561-3 0  9990
2 57182  97.5809  95.9208 0015951  31.8054 328.4138 15.15711767 89117
MONITOR-2 (RS39S)       
1 57184U 23091U   25038.89141056  .00007603  00000+0  44120-3 0  9991
2 57184  97.5818  95.3595 0013643  29.6548 330.5453 15.12351650 89078
SVYATOBOR 1 (RS60S)     
1 57187U 23091X   25038.93021549  .00010081  00000+0  52929-3 0  9993
2 57187  97.5816  96.6972 0012406  24.4016 335.7801 15.15855784 89165
VIZARD-METEO (RS38S)    
1 57189U 23091Z   25038.93430481  .00014381  00000+0  68509-3 0  9992
2 57189  97.5805  97.8589 0010883  19.8235 340.3420 15.19184811 89248
NANOZOND 1 (RS49S)      
1 57190U 23091AA  25038.86725979  .00027041  00000+0  10223-2 0  9991
2 57190  97.5764  99.8897 0008365  18.3747 341.7792 15.26913797 89385
POLYTECH-UNIVERSE 3 (R*)
1 57191U 23091AB  25038.89633556  .00007968  00000+0  46073-3 0  9993
2 57191  97.5785  94.9475 0018798  44.0508 316.2216 15.12393370 89066
UTMN 2 (RS27S)          
1 57203U 23091AP  25038.91954367  .00013118  00000+0  64804-3 0  9992
2 57203  97.5805  97.4137 0011391  20.6192 339.5499 15.17938695 89215
ARCCUBE 1 (RS25S)       
1 57205U 23091AR  25038.91427380  .00038004  00000+0  12379-2 0  9994
2 57205  97.5702 100.8322 0007848  14.9337 345.2134 15.31710829 89467
KUZGTU 1 (RS47S)        
1 57217U 23091AV  25038.90278096  .00013091  00000+0  67372-3 0  9997
2 57217  97.5794  96.1164 0015357  31.4859 328.7290 15.16453804 89132
SONATE-2                
1 59112U 24043Q   25038.88477018  .00021091  00000+0  73695-3 0  9997
2 59112  97.4963 168.2904 0011958 184.3037 175.8102 15.29520956 51697
MESAT1                  
1 60209U 24125G   25038.85679953  .00022375  00000+0  77189-3 0  9994
2 60209  97.2951 252.2200 0020480 210.8371 149.1668 15.29786090 33302
OOV-CUBE (TUBSAT-30)    
1 60240U 24128F   25038.78208875  .00004465  00000+0  37747-3 0  9991
2 60240  61.9966 145.0466 0037865  25.1654 335.1269 14.99023714 31899
COLIBRI-S (RS67S)       
1 61746U 24199M   25038.86168061  .00017892  00000+0  65931-3 0  9996
2 61746  97.3774 268.4819 0011875 256.3358 103.6559 15.27809866 61474
HORS 3 (RS81S)          
1 61753U 24199U   25038.92323898  .00021048  00000+0  76628-3 0  9995
2 61753  97.3746 268.5192 0010308 265.2846  94.7216 15.28191554 61487
HORS 4 (RS82S)          
1 61754U 24199V   25038.90894800  .00021528  00000+0  77405-3 0  9997
2 61754  97.3744 268.5362 0010308 265.8690  94.1372 15.28595924 61484
HORIZON (RS59S)         
1 61757U 24199Y   25038.93816104  .00027278  00000+0  94682-3 0  9998
2 61757  97.3770 268.6809 0011245 254.1268 105.8733 15.29691456 61496
SIT-2086                
1 61764U 24199AF  25038.93667233  .00022678  00000+0  79798-3 0  9993
2 61764  97.3747 268.6535 0008656 265.9464  94.0787 15.29308249 58336
MORDOVIA-IOT (RS50S)    
1 61765U 24199AG  25038.88067222  .00033052  00000+0  10924-2 0  9993
2 61765  97.3768 268.7567 0010791 250.7368 109.2706 15.31244053 58340
RUZAEVKA 390 (RS44S)    
1 61766U 24199AH  25038.89058572  .00030218  00000+0  10119-2 0  9990
2 61766  97.3768 268.7403 0010693 249.9183 110.0907 15.30841156 58345
HYPERVIEW 1G (RS66S)    
1 61772U 24199AP  25038.87718624  .00023556  00000+0  85183-3 0  9997
2 61772  97.3743 268.4259 0014148 268.8680  91.0938 15.28344522 58324
ALTAIR (RS65S)          
1 61779U 24199AW  25038.89097085  .00012218  00000+0  47994-3 0  9998
2 61779  97.3755 268.2653 0014906 269.3608  90.5922 15.25739944 61467
ASRTU-1 (AO-123)        
1 61781U 24199AY  25038.90251998  .00011855  00000+0  46835-3 0  9997
2 61781  97.3752 268.2497 0015165 269.6388  90.3112 15.25551403 58310
TUSUR GO (RS78S)        
1 61782U 24199AZ  25038.89715648  .00027447  00000+0  99528-3 0  9994
2 61782  97.3744 268.4018 0015058 268.4642  91.4873 15.28210495 58327
SAMSAT-IONOSPHERE (RS7*)
1 61784U 24199BB  25038.91502601  .00021341  00000+0  79460-3 0  9992
2 61784  97.3749 268.3797 0015222 268.8010  91.1485 15.27388808 61472
RTU MIREA 1 (RS51S)     
1 61785U 24199BC  25038.91091887  .00022447  00000+0  83184-3 0  9998
2 61785  97.3749 268.3849 0015074 268.2778  91.6735 15.27536367 58329
CUTE-1 (CO-55)          
1 27844U 03031E   25038.90435610  .00000721  00000+0  33419-3 0  9990
2 27844  98.6788  48.7436 0009761 174.3213 185.8078 14.23808570121323
CUBESAT XI-IV (CO-57)   
1 27848U 03031J   25038.93750060  .00000606  00000+0  28741-3 0  9990
2 27848  98.6814  48.8717 0009325 191.0587 169.0388 14.23170768121066
CUBESAT XI-V            
1 28895U 05043F   25038.66137871  .00003613  00000+0  60843-3 0  9997
2 28895  98.2277 181.7000 0014469 336.7005  23.3543 14.70110299 29021
CUTE-1.7+APD II (CO-65) 
1 32785U 08021C   25038.87329471  .00009508  00000+0  72790-3 0  9994
2 32785  97.7662   9.4361 0008817 266.0143  94.0073 15.02064117910867
AAUSAT-II               
1 32788U 08021F   25038.88002773  .00086591  00000+0  17277-2 0  9996
2 32788  97.6053  30.2328 0007411  84.8239 275.3856 15.46512123914342
CANX-2                  
1 32790U 08021H   25038.83230053  .00007447  00000+0  60634-3 0  9997
2 32790  97.7959   7.9533 0010908 260.2086  99.7905 14.99770231910639
SEEDS II (CO-66)        
1 32791U 08021J   25038.43488887  .00018077  00000+0  10075-2 0  9998
2 32791  97.7164  16.2632 0003176 192.8300 167.2850 15.13651185911981
SWISSCUBE               
1 35932U 09051B   25038.93706526  .00002349  00000+0  49150-3 0  9992
2 35932  98.4450 292.8458 0006235 318.4827  41.5898 14.60747377816951
BEESAT-1                
1 35933U 09051C   25038.66018027  .00002185  00000+0  46287-3 0  9991
2 35933  98.4381 293.1279 0004933 337.1581  22.9399 14.60248068816972
ITUPSAT1                
1 35935U 09051E   25038.23523269  .00002006  00000+0  43662-3 0  9991
2 35935  98.4473 292.3320 0007351 342.4466  17.6478 14.59084500816529
TISAT 1                 
1 36799U 10035E   25038.69324563  .00017935  00000+0  10516-2 0  9998
2 36799  98.0666 305.5391 0004654 132.0998 228.0627 15.11828658792525
AEROCUBE 4.5A           
1 38767U 12048K   25038.91115440  .00025829  00000+0  88037-3 0  9993
2 38767  64.6504 268.5514 0107182 306.7558  52.3765 15.24912829296213
AEROCUBE 4.5B           
1 38768U 12048L   25038.69188790  .00277183  00000+0  16155-2 0  9990
2 38768  64.6353 162.8813 0048226 299.8484  59.7879 15.75742405297762
STRAND-1                
1 39090U 13009E   25038.80128836  .00000777  00000+0  27840-3 0  9992
2 39090  98.3791 226.7017 0007726 269.0313  90.9988 14.36626449626069
BRITE-AUSTRIA           
1 39091U 13009F   25038.41763279  .00000536  00000+0  19823-3 0  9991
2 39091  98.3844 225.5972 0009178 278.7403  81.2744 14.36180223626020
NEE-01 PEGASO           
1 39151U 13018B   25038.84933771  .00005180  00000+0  55055-3 0  9998
2 39151  98.0542 165.2320 0013774 353.5764   6.5274 14.89379330637011
ESTCUBE 1               
1 39161U 13021C   25038.73108189  .00003682  00000+0  50663-3 0  9993
2 39161  97.7985 104.0375 0008645 178.1361 181.9884 14.78842762631870
POPACS 1                
1 39268U 13055D   25037.53472645  .00058622 -19024-6  69406-3 0  9999
2 39268  80.9750 236.5235 0303487  42.4412 319.9855 15.21437774597289
POPACS 2                
1 39269U 13055E   25038.86232359  .00031271  00000+0  65113-3 0  9991
2 39269  81.0006 341.1764 0499403 317.7904  38.5832 14.69807963590053
POPACS 3                
1 39270U 13055F   25038.72207296  .00010005  00000+0  25775-3 0  9992
2 39270  81.0046  40.7473 0600113 123.8511 242.1295 14.44121918566871
ZACUBE-1 (TSHEPISOSAT)  
1 39417U 13066B   25038.83028088  .00009166  00000+0  83622-3 0  9990
2 39417  97.7649 356.7798 0048351  98.1830 262.4879 14.94413291606719
WNISAT-1                
1 39423U 13066H   25038.47791396  .00001399  00000+0  26921-3 0  9995
2 39423  97.6678 219.9209 0166634 350.1694   9.6257 14.56557314594673
TRITON-1                
1 39427U 13066M   25038.92249797  .00006133  00000+0  79724-3 0  9992
2 39427  97.8410 315.8608 0098029  41.7321 319.1314 14.77676843600981
DELFI-N3XT              
1 39428U 13066N   25038.77159733  .00013200  00000+0  14309-2 0  9996
2 39428  97.8374 318.0229 0091103  41.8713 318.9423 14.85275986600976
GOMX-1                  
1 39430U 13066Q   25038.89381027  .00004072  00000+0  64774-3 0  9994
2 39430  97.7008 264.9628 0133364 221.3113 137.7945 14.66743415597381
CUBEBUG-2 (LO-74)       
1 39440U 13066AA  25038.85266183  .00007285  00000+0  76991-3 0  9999
2 39440  97.8369 344.5068 0063037 219.9921 139.6645 14.88051707604528
NEE-02 KRYSAOR          
1 39441U 13066AB  25038.80121937  .00004411  00000+0  52464-3 0  9999
2 39441  97.8450 339.1419 0068784 247.7834 111.6073 14.83214812602825
FUNCUBE-1 (AO-73)       
1 39444U 13066AE  25038.88038766  .00011170  00000+0  90729-3 0  9993
2 39444  97.7481   0.8369 0043517  75.0724 285.5311 14.99029841605332
UWE-3                   
1 39446U 13066AG  25038.81718816  .00007236  00000+0  71777-3 0  9999
2 39446  97.8099 350.6870 0055973 160.6400 199.6962 14.90892371603752
